[
    {
        "Altitude(m)": 604983.0529948724,
        "Argument of Periapsis(deg)": 0.0,
        "Eccentricity": 0.0,
        "Inclination(deg)": 60.0,
        "Latitude(deg)": -0.09266935931353686,
        "Longitude(deg)": -9.91608345557673,
        "Mean Anomaly(deg)": -180.0,
        "RAAN(deg)": 270.0,
        "Satellite Name": "Test1 1199",
        "Satellite Number": 1199,
        "Semi-Major Axis(m)": 6980739.136638005,
        "Time(s)": 0
    },
    {
        "Altitude(m)": 605055.3326013263,
        "Argument of Periapsis(deg)": 0.00010418945913296404,
        "Eccentricity": 0.0,
        "Inclination(deg)": 60.0,
        "Latitude(deg)": -0.6330788129247882,
        "Longitude(deg)": -9.647957706362293,
        "Mean Anomaly(deg)": -179.37989385453815,
        "RAAN(deg)": 269.99957995086027,
        "Satellite Name": "Test1 1199",
        "Satellite Number": 1199,
        "Semi-Major Axis(m)": 6980739.136638005,
        "Time(s)": 10
    }
]